OBJECT_NAME,OBJECT_ID,EPOCH,MEAN_MOTION,ECCENTRICITY,INCLINATION,RA_OF_ASC_NODE,ARG_OF_PERICENTER,MEAN_ANOMALY,EPHEMERIS_TYPE,CLASSIFICATION_TYPE,NORAD_CAT_ID,ELEMENT_SET_NO,REV_AT_EPOCH,BSTAR,MEAN_MOTION_DOT,MEAN_MOTION_DDOT
ONEWEB-0415,2022-012C,2026-06-25T02:29:31.972128,13.10339252,.0001958,87.8829,34.6894,91.2543,268.8809,0,U,51624,999,21032,.32451E-2,.1145E-4,0
ONEWEB-0416,2022-012D,2026-06-25T02:46:38.489664,13.10331489,.0002165,87.8819,34.7047,90.0934,270.0442,0,U,51625,999,21036,.13283E-1,.4649E-4,0
ONEWEB-0422,2022-012E,2026-06-25T01:10:19.205760,13.17649674,.0001278,87.9141,4.2946,100.4428,259.6848,0,U,51626,999,21484,.21766E-3,.97E-6,0
ONEWEB-0423,2022-012F,2026-06-25T01:00:35.229024,13.17650948,.0001831,87.9136,4.3011,85.5994,274.5347,0,U,51627,999,21473,.29455E-3,.127E-5,0
ONEWEB-0425,2022-012G,2026-06-25T01:11:20.198112,13.10322749,.0001983,87.8823,34.7011,75.5950,284.5397,0,U,51628,999,21035,.1509E-1,.5279E-4,0
ONEWEB-0428,2022-012H,2026-06-25T02:31:58.573056,13.10341748,.0001732,87.8822,34.6972,83.0918,277.0406,0,U,51629,999,21032,.62179E-2,.2183E-4,0
ONEWEB-0431,2022-012J,2026-06-25T03:37:44.823072,13.10398800,.0001835,87.8824,34.6797,105.3439,254.7891,0,U,51630,999,21038,-.12768E-1,-.4444E-4,0
ONEWEB-0434,2022-012K,2026-06-25T03:06:21.576096,13.10289629,.0002491,87.8843,34.7098,62.5276,297.6105,0,U,51631,999,21036,.40916E-1,.14301E-3,0
ONEWEB-0435,2022-012L,2026-06-25T03:15:57.011328,13.10431622,.0001242,87.8816,34.6925,85.7365,274.3905,0,U,51632,999,21035,-.19562E-1,-.6817E-4,0
ONEWEB-0436,2022-012M,2026-06-25T00:48:26.399232,13.17649664,.0001679,87.9138,4.2849,94.1691,265.9633,0,U,51633,999,21471,.79494E-4,.44E-6,0
ONEWEB-0438,2022-012N,2026-06-25T02:53:58.314048,13.10333374,.0001943,87.8828,34.7008,79.3349,280.7997,0,U,51634,999,21038,.15547E-1,.544E-4,0
ONEWEB-0439,2022-012P,2026-06-25T02:58:51.515040,13.10331880,.0001722,87.8826,34.6877,81.0785,279.0538,0,U,51635,999,21036,.16252E-1,.5686E-4,0
ONEWEB-0442,2022-012Q,2026-06-25T00:37:31.768032,13.17640087,.0002217,87.9131,4.3186,78.0698,282.0682,0,U,51636,999,21470,-.26462E-2,-.1014E-4,0
ONEWEB-0443,2022-012R,2026-06-25T01:05:26.409120,13.17650168,.0001625,87.9132,4.3157,80.5623,279.5692,0,U,51637,999,21475,.20635E-3,.93E-6,0
ONEWEB-0444,2022-012S,2026-06-25T02:44:12.048576,13.10333666,.0001744,87.8834,34.6880,79.3899,280.7424,0,U,51638,999,21037,.96027E-2,.3364E-4,0
ONEWEB-0445,2022-012T,2026-06-24T21:43:38.987904,13.10426779,.0002624,87.8896,34.7169,101.1565,258.9858,0,U,51639,999,21035,-.16165E-1,-.5631E-4,0
ONEWEB-0446,2022-012U,2026-06-25T02:41:45.253248,13.10337385,.0002119,87.8864,34.7028,86.4941,273.6429,0,U,51640,999,21036,.1444E-1,.5053E-4,0
ONEWEB-0448,2022-012V,2026-06-25T02:49:03.156096,13.10332604,.0001605,87.8827,34.7001,82.4013,277.7296,0,U,51641,999,21033,.15813E-1,.5533E-4,0
ONEWEB-0449,2022-012W,2026-06-25T02:56:24.633312,13.10334777,.0002243,87.8834,34.6854,71.2940,288.8430,0,U,51642,999,21034,.16207E-1,.5671E-4,0
ONEWEB-0451,2022-012X,2026-06-25T00:43:35.740128,13.17649581,.0001913,87.9143,4.2832,82.4607,277.6742,0,U,51643,999,21469,.21612E-3,.97E-6,0
ONEWEB-0452,2022-012Y,2026-06-25T00:41:08.886048,13.17649742,.000175,87.9131,4.3196,79.7746,280.3583,0,U,51644,999,21470,.29272E-3,.127E-5,0
ONEWEB-0456,2022-012AA,2026-06-25T03:08:36.934656,13.10432255,.0002109,87.8847,34.6708,82.0751,278.0616,0,U,51646,999,21038,-.26803E-1,-.9342E-4,0
ONEWEB-0457,2022-012AB,2026-06-25T00:46:42.638016,13.10336137,.0002404,87.8819,34.7089,84.4590,275.6811,0,U,51647,999,21037,.8762E-2,.3071E-4,0
ONEWEB-0458,2022-012AC,2026-06-25T01:17:27.426624,13.10374577,.0001777,87.8832,34.6925,77.7340,282.3986,0,U,51648,999,21033,.20065E-2,.713E-5,0
ONEWEB-0461,2022-012AD,2026-06-25T03:02:05.690400,13.17648576,.0002007,87.9141,4.2779,90.3783,269.7579,0,U,51649,999,21493,.49216E-4,.32E-6,0
ONEWEB-0463,2022-012AE,2026-06-25T00:46:01.515072,13.17649219,.0001988,87.9129,4.3186,90.6699,269.4661,0,U,51650,999,21470,.17162E-3,.8E-6,0
ONEWEB-0464,2022-012AF,2026-06-25T03:03:43.608384,13.10311040,.0001135,87.8851,34.6982,97.4923,262.6333,0,U,51651,999,21036,.30469E-1,.10651E-3,0
ONEWEB-0468,2022-012AG,2026-06-25T03:11:03.405120,13.10435521,.0001673,87.8830,34.6914,82.0921,278.0397,0,U,51652,999,21034,-.21839E-1,-.7611E-4,0
ONEWEB-0473,2022-012AH,2026-06-25T02:51:33.397056,13.10318154,.0002063,87.8847,34.6961,77.8954,282.2404,0,U,51653,999,21034,.16491E-1,.5768E-4,0
ONEWEB-0474,2022-012AJ,2026-06-25T02:39:17.028000,13.10349291,.0001394,87.8825,34.6843,77.6846,282.4438,0,U,51654,999,21033,.13237E-1,.4634E-4,0
ONEWEB-0475,2022-012AK,2026-06-25T01:03:01.976832,13.17649526,.0001284,87.9132,4.3093,76.9779,283.1496,0,U,51655,999,21472,.18709E-3,.86E-6,0
