ONEWEB-0415             
1 51624U 22012C   26176.10384227  .00001145  00000+0  32451-2 0  9991
2 51624  87.8829  34.6894 0001958  91.2543 268.8809 13.10339252210321
ONEWEB-0416             
1 51625U 22012D   26176.11572326  .00004649  00000+0  13283-1 0  9995
2 51625  87.8819  34.7047 0002165  90.0934 270.0442 13.10331489210360
ONEWEB-0422             
1 51626U 22012E   26176.04883340  .00000097  00000+0  21766-3 0  9999
2 51626  87.9141   4.2946 0001278 100.4428 259.6848 13.17649674214843
ONEWEB-0423             
1 51627U 22012F   26176.04207441  .00000127  00000+0  29455-3 0  9999
2 51627  87.9136   4.3011 0001831  85.5994 274.5347 13.17650948214732
ONEWEB-0425             
1 51628U 22012G   26176.04953933  .00005279  00000+0  15090-1 0  9995
2 51628  87.8823  34.7011 0001983  75.5950 284.5397 13.10322749210359
ONEWEB-0428             
1 51629U 22012H   26176.10553904  .00002183  00000+0  62179-2 0  9999
2 51629  87.8822  34.6972 0001732  83.0918 277.0406 13.10341748210329
ONEWEB-0431             
1 51630U 22012J   26176.15121323 -.00004444  00000+0 -12768-1 0  9994
2 51630  87.8824  34.6797 0001835 105.3439 254.7891 13.10398800210385
ONEWEB-0434             
1 51631U 22012K   26176.12941639  .00014301  00000+0  40916-1 0  9999
2 51631  87.8843  34.7098 0002491  62.5276 297.6105 13.10289629210364
ONEWEB-0435             
1 51632U 22012L   26176.13607652 -.00006817  00000+0 -19562-1 0  9993
2 51632  87.8816  34.6925 0001242  85.7365 274.3905 13.10431622210353
ONEWEB-0436             
1 51633U 22012M   26176.03363888  .00000044  00000+0  79494-4 0  9990
2 51633  87.9138   4.2849 0001679  94.1691 265.9633 13.17649664214712
ONEWEB-0438             
1 51634U 22012N   26176.12081382  .00005440  00000+0  15547-1 0  9998
2 51634  87.8828  34.7008 0001943  79.3349 280.7997 13.10333374210380
ONEWEB-0439             
1 51635U 22012P   26176.12420735  .00005686  00000+0  16252-1 0  9994
2 51635  87.8826  34.6877 0001722  81.0785 279.0538 13.10331880210361
ONEWEB-0442             
1 51636U 22012Q   26176.02606213 -.00001014  00000+0 -26462-2 0  9999
2 51636  87.9131   4.3186 0002217  78.0698 282.0682 13.17640087214703
ONEWEB-0443             
1 51637U 22012R   26176.04544455  .00000093  00000+0  20635-3 0  9992
2 51637  87.9132   4.3157 0001625  80.5623 279.5692 13.17650168214759
ONEWEB-0444             
1 51638U 22012S   26176.11402834  .00003364  00000+0  96027-2 0  9996
2 51638  87.8834  34.6880 0001744  79.3899 280.7424 13.10333666210375
ONEWEB-0445             
1 51639U 22012T   26175.90531236 -.00005631  00000+0 -16165-1 0  9997
2 51639  87.8896  34.7169 0002624 101.1565 258.9858 13.10426779210351
ONEWEB-0446             
1 51640U 22012U   26176.11232932  .00005053  00000+0  14440-1 0  9994
2 51640  87.8864  34.7028 0002119  86.4941 273.6429 13.10337385210367
ONEWEB-0448             
1 51641U 22012V   26176.11739764  .00005533  00000+0  15813-1 0  9998
2 51641  87.8827  34.7001 0001605  82.4013 277.7296 13.10332604210336
ONEWEB-0449             
1 51642U 22012W   26176.12250733  .00005671  00000+0  16207-1 0  9995
2 51642  87.8834  34.6854 0002243  71.2940 288.8430 13.10334777210341
ONEWEB-0451             
1 51643U 22012X   26176.03027477  .00000097  00000+0  21612-3 0  9998
2 51643  87.9143   4.2832 0001913  82.4607 277.6742 13.17649581214695
ONEWEB-0452             
1 51644U 22012Y   26176.02857507  .00000127  00000+0  29272-3 0  9997
2 51644  87.9131   4.3196 0001750  79.7746 280.3583 13.17649742214704
ONEWEB-0456             
1 51646U 22012AA  26176.13098304 -.00009342  00000+0 -26803-1 0  9998
2 51646  87.8847  34.6708 0002109  82.0751 278.0616 13.10432255210389
ONEWEB-0457             
1 51647U 22012AB  26176.03243794  .00003071  00000+0  87620-2 0  9999
2 51647  87.8819  34.7089 0002404  84.4590 275.6811 13.10336137210378
ONEWEB-0458             
1 51648U 22012AC  26176.05378966  .00000713  00000+0  20065-2 0  9992
2 51648  87.8832  34.6925 0001777  77.7340 282.3986 13.10374577210336
ONEWEB-0461             
1 51649U 22012AD  26176.12645475  .00000032  00000+0  49216-4 0  9998
2 51649  87.9141   4.2779 0002007  90.3783 269.7579 13.17648576214937
ONEWEB-0463             
1 51650U 22012AE  26176.03196198  .00000080  00000+0  17162-3 0  9990
2 51650  87.9129   4.3186 0001988  90.6699 269.4661 13.17649219214703
ONEWEB-0464             
1 51651U 22012AF  26176.12758806  .00010651  00000+0  30469-1 0  9999
2 51651  87.8851  34.6982 0001135  97.4923 262.6333 13.10311040210364
ONEWEB-0468             
1 51652U 22012AG  26176.13267830 -.00007611  00000+0 -21839-1 0  9998
2 51652  87.8830  34.6914 0001673  82.0921 278.0397 13.10435521210342
ONEWEB-0473             
1 51653U 22012AH  26176.11913654  .00005768  00000+0  16491-1 0  9996
2 51653  87.8847  34.6961 0002063  77.8954 282.2404 13.10318154210343
ONEWEB-0474             
1 51654U 22012AJ  26176.11061375  .00004634  00000+0  13237-1 0  9997
2 51654  87.8825  34.6843 0001394  77.6846 282.4438 13.10349291210337
ONEWEB-0475             
1 51655U 22012AK  26176.04377288  .00000086  00000+0  18709-3 0  9991
2 51655  87.9132   4.3093 0001284  76.9779 283.1496 13.17649526214726
